ONEWEB-0171             
1 48070U 21025AE  25171.86030412 -.00000190  00000+0 -55521-3 0  9991
2 48070  87.8966  32.0511 0001897  85.9191 274.2155 13.13468446206188
ONEWEB-0172             
1 48071U 21025AF  25171.83999846  .00000348  00000+0  91914-3 0  9993
2 48071  87.8966  32.0217 0002005  85.4755 274.6603 13.13470301207079
ONEWEB-0174             
1 48072U 21025AG  25171.89755010  .00000226  00000+0  58295-3 0  9993
2 48072  87.8966  32.0236 0001791  79.5197 280.6134 13.13469633206404
ONEWEB-0175             
1 48073U 21025AH  25171.85183800  .00000009  00000+0 -92014-5 0  9991
2 48073  87.8960  32.0002 0002022  92.5629 267.5731 13.13468471206050
ONEWEB-0177             
1 48074U 21025AJ  25171.86368409 -.00000168  00000+0 -49506-3 0  9996
2 48074  87.8962  32.0112 0002015  78.9320 281.2036 13.13469844206240
ONEWEB-0178             
1 48075U 21025AK  25171.88244984 -.00000127  00000+0 -38243-3 0  9991
2 48075  87.8968  32.0508 0002129  85.4162 274.7210 13.13469440206297
ONEWEB-0108             
1 48076U 21025AL  25171.84167914  .00000296  00000+0  77579-3 0  9995
2 48076  87.8962  32.0110 0001573  83.0442 277.0866 13.13468688206216
ONEWEB-0169             
1 48077U 21025AM  25171.87383599 -.00000175  00000+0 -51304-3 0  9994
2 48077  87.8962  32.0238 0001600  82.9073 277.2239 13.13471357204870
